IRIDIUM 144             
1 43249U 18030A   24187.87078075  .00000173  00000+0  54678-4 0  9992
2 43249  86.3967 227.6559 0002593  89.8645 270.2848 14.34218606328186
IRIDIUM 149             
1 43250U 18030B   24187.80735370  .00000016  00000+0 -12852-5 0  9991
2 43250  86.3969 227.6571 0002312  88.5533 271.5927 14.34218440328194
IRIDIUM 157             
1 43251U 18030C   24187.82637961  .00000190  00000+0  60764-4 0  9997
2 43251  86.3968 227.6867 0001998  90.1747 269.9677 14.34216672328173
IRIDIUM 140             
1 43252U 18030D   24187.63610161 -.00000028  00000+0 -17234-4 0  9996
2 43252  86.3973 227.7807 0002598  95.5775 264.5717 14.34215711328205
IRIDIUM 146             
1 43254U 18030F   24187.81369776  .00000118  00000+0  34919-4 0  9998
2 43254  86.3966 227.6949 0002453  89.1001 271.0476 14.34218016328178
IRIDIUM 148             
1 43255U 18030G   24187.85175272  .00000356  00000+0  12010-3 0  9990
2 43255  86.3967 227.7111 0002197  88.9020 271.2427 14.34218087328216
